ONEWEB-0399             
1 50479U 21132L   26059.24578245  .00000561  00000+0  15467-2 0  9999
2 50479  87.8847  42.7261 0001642  68.9534 291.1770 13.11416172201321
ONEWEB-0400             
1 50480U 21132M   26059.27776167 -.00000020  00000+0 -83205-4 0  9996
2 50480  87.9246 357.0676 0002012  80.3802 279.7558 13.18685828207254
ONEWEB-0401             
1 50481U 21132N   26059.24640964  .00000104  00000+0  23110-3 0  9998
2 50481  87.9246 357.0695 0001657  80.8363 279.2956 13.18686583207253
ONEWEB-0402             
1 50482U 21132P   26059.28600257 -.00000027  00000+0 -10138-3 0  9996
2 50482  87.9244 357.0536 0001341  87.2712 272.8574 13.18686157207280
ONEWEB-0403             
1 50483U 21132Q   26059.23487205  .00000111  00000+0  24863-3 0  9990
2 50483  87.9245 357.0866 0001885  75.4873 284.6469 13.18685478207232
ONEWEB-0404             
1 50484U 21132R   26059.22712549  .00000036  00000+0  65299-4 0  9997
2 50484  87.8847  42.7376 0001913  74.2291 285.9048 13.11418975201417
ONEWEB-0405             
1 50485U 21132S   26059.24971332  .00000105  00000+0  23326-3 0  9998
2 50485  87.9250 357.0671 0001648  75.4449 284.6866 13.18685527207630
ONEWEB-0406             
1 50486U 21132T   26059.23981665  .00000011  00000+0 -57678-5 0  9994
2 50486  87.9239 357.0955 0001928  64.3629 295.7702 13.18687456207265
ONEWEB-0407             
1 50487U 21132U   26059.23321854  .00000069  00000+0  14233-3 0  9993
2 50487  87.9245 357.0798 0001779  83.9805 276.1530 13.18685758207204
ONEWEB-0409             
1 50488U 21132V   26059.22543467 -.00000074  00000+0 -24384-3 0  9995
2 50488  87.8850  42.7182 0001984  76.4901 283.6448 13.11420795201300
ONEWEB-0412             
1 50489U 21132W   26059.22167154  .00000042  00000+0  74274-4 0  9998
2 50489  87.9245 357.0957 0001525  80.6068 279.5237 13.18685861207292
ONEWEB-0413             
1 50490U 21132X   26059.22662513  .00000046  00000+0  83273-4 0  9992
2 50490  87.9230 357.1000 0001571  85.4657 274.6654 13.18686450207234
ONEWEB-0414             
1 50491U 21132Y   26059.21177009  .00000001  00000+0 -30635-4 0  9999
2 50491  87.9244 357.0737 0001656  76.6757 283.4560 13.18687974207262
ONEWEB-0417             
1 50492U 21132Z   26059.22002326  .00000082  00000+0  17583-3 0  9994
2 50492  87.9236 357.1008 0001942  72.4546 287.6798 13.18685731207240
ONEWEB-0418             
1 50493U 21132AA  26059.22977000 -.00000142  00000+0 -39286-3 0  9998
2 50493  87.9247 357.0881 0001992  68.0082 292.1262 13.18687029207308
ONEWEB-0419             
1 50494U 21132AB  26059.24806942  .00000180  00000+0  42452-3 0  9996
2 50494  87.9251 357.0838 0002172  76.3787 283.7587 13.18685688207227
ONEWEB-0420             
1 50495U 21132AC  26059.21342510  .00000011  00000+0 -51094-5 0  9998
2 50495  87.9240 357.1037 0001800  84.0831 276.0506 13.18685728207211
