[{"OBJECT_NAME":"ONEWEB-0399","OBJECT_ID":"2021-132L","EPOCH":"2026-02-28T05:53:55.603680","MEAN_MOTION":13.11416172,"ECCENTRICITY":0.00016428,"INCLINATION":87.8847,"RA_OF_ASC_NODE":42.7261,"ARG_OF_PERICENTER":68.9534,"MEAN_ANOMALY":291.177,"EPHEMERIS_TYPE":0,"CLASSIFICATION_TYPE":"U","NORAD_CAT_ID":50479,"ELEMENT_SET_NO":999,"REV_AT_EPOCH":20132,"BSTAR":0.0015466608,"MEAN_MOTION_DOT":5.61e-6,"MEAN_MOTION_DDOT":0},{"OBJECT_NAME":"ONEWEB-0400","OBJECT_ID":"2021-132M","EPOCH":"2026-02-28T06:39:58.608288","MEAN_MOTION":13.18685828,"ECCENTRICITY":0.00020123,"INCLINATION":87.9246,"RA_OF_ASC_NODE":357.0676,"ARG_OF_PERICENTER":80.3802,"MEAN_ANOMALY":279.7558,"EPHEMERIS_TYPE":0,"CLASSIFICATION_TYPE":"U","NORAD_CAT_ID":50480,"ELEMENT_SET_NO":999,"REV_AT_EPOCH":20725,"BSTAR":-8.3205272e-5,"MEAN_MOTION_DOT":-2.0e-7,"MEAN_MOTION_DDOT":0},{"OBJECT_NAME":"ONEWEB-0401","OBJECT_ID":"2021-132N","EPOCH":"2026-02-28T05:54:49.792896","MEAN_MOTION":13.18686583,"ECCENTRICITY":0.00016576,"INCLINATION":87.9246,"RA_OF_ASC_NODE":357.0695,"ARG_OF_PERICENTER":80.8363,"MEAN_ANOMALY":279.2956,"EPHEMERIS_TYPE":0,"CLASSIFICATION_TYPE":"U","NORAD_CAT_ID":50481,"ELEMENT_SET_NO":999,"REV_AT_EPOCH":20725,"BSTAR":0.0002310991,"MEAN_MOTION_DOT":1.04e-6,"MEAN_MOTION_DDOT":0},{"OBJECT_NAME":"ONEWEB-0402","OBJECT_ID":"2021-132P","EPOCH":"2026-02-28T06:51:50.622048","MEAN_MOTION":13.18686157,"ECCENTRICITY":0.00013417,"INCLINATION":87.9244,"RA_OF_ASC_NODE":357.0536,"ARG_OF_PERICENTER":87.2712,"MEAN_ANOMALY":272.8574,"EPHEMERIS_TYPE":0,"CLASSIFICATION_TYPE":"U","NORAD_CAT_ID":50482,"ELEMENT_SET_NO":999,"REV_AT_EPOCH":20728,"BSTAR":-0.00010137887,"MEAN_MOTION_DOT":-2.7e-7,"MEAN_MOTION_DDOT":0},{"OBJECT_NAME":"ONEWEB-0403","OBJECT_ID":"2021-132Q","EPOCH":"2026-02-28T05:38:12.945120","MEAN_MOTION":13.18685478,"ECCENTRICITY":0.00018857,"INCLINATION":87.9245,"RA_OF_ASC_NODE":357.0866,"ARG_OF_PERICENTER":75.4873,"MEAN_ANOMALY":284.6469,"EPHEMERIS_TYPE":0,"CLASSIFICATION_TYPE":"U","NORAD_CAT_ID":50483,"ELEMENT_SET_NO":999,"REV_AT_EPOCH":20723,"BSTAR":0.00024862986,"MEAN_MOTION_DOT":1.11e-6,"MEAN_MOTION_DDOT":0},{"OBJECT_NAME":"ONEWEB-0404","OBJECT_ID":"2021-132R","EPOCH":"2026-02-28T05:27:03.642336","MEAN_MOTION":13.11418975,"ECCENTRICITY":0.00019133,"INCLINATION":87.8847,"RA_OF_ASC_NODE":42.7376,"ARG_OF_PERICENTER":74.2291,"MEAN_ANOMALY":285.9048,"EPHEMERIS_TYPE":0,"CLASSIFICATION_TYPE":"U","NORAD_CAT_ID":50484,"ELEMENT_SET_NO":999,"REV_AT_EPOCH":20141,"BSTAR":6.5299269e-5,"MEAN_MOTION_DOT":3.6e-7,"MEAN_MOTION_DDOT":0},{"OBJECT_NAME":"ONEWEB-0405","OBJECT_ID":"2021-132S","EPOCH":"2026-02-28T05:59:35.230848","MEAN_MOTION":13.18685527,"ECCENTRICITY":0.0001648,"INCLINATION":87.925,"RA_OF_ASC_NODE":357.0671,"ARG_OF_PERICENTER":75.4449,"MEAN_ANOMALY":284.6866,"EPHEMERIS_TYPE":0,"CLASSIFICATION_TYPE":"U","NORAD_CAT_ID":50485,"ELEMENT_SET_NO":999,"REV_AT_EPOCH":20763,"BSTAR":0.00023325978,"MEAN_MOTION_DOT":1.05e-6,"MEAN_MOTION_DDOT":0},{"OBJECT_NAME":"ONEWEB-0406","OBJECT_ID":"2021-132T","EPOCH":"2026-02-28T05:45:20.158560","MEAN_MOTION":13.18687456,"ECCENTRICITY":0.00019283,"INCLINATION":87.9239,"RA_OF_ASC_NODE":357.0955,"ARG_OF_PERICENTER":64.3629,"MEAN_ANOMALY":295.7702,"EPHEMERIS_TYPE":0,"CLASSIFICATION_TYPE":"U","NORAD_CAT_ID":50486,"ELEMENT_SET_NO":999,"REV_AT_EPOCH":20726,"BSTAR":-5.767829e-6,"MEAN_MOTION_DOT":1.1e-7,"MEAN_MOTION_DDOT":0},{"OBJECT_NAME":"ONEWEB-0407","OBJECT_ID":"2021-132U","EPOCH":"2026-02-28T05:35:50.081856","MEAN_MOTION":13.18685758,"ECCENTRICITY":0.00017791,"INCLINATION":87.9245,"RA_OF_ASC_NODE":357.0798,"ARG_OF_PERICENTER":83.9805,"MEAN_ANOMALY":276.153,"EPHEMERIS_TYPE":0,"CLASSIFICATION_TYPE":"U","NORAD_CAT_ID":50487,"ELEMENT_SET_NO":999,"REV_AT_EPOCH":20720,"BSTAR":0.00014233121,"MEAN_MOTION_DOT":6.9e-7,"MEAN_MOTION_DDOT":0},{"OBJECT_NAME":"ONEWEB-0409","OBJECT_ID":"2021-132V","EPOCH":"2026-02-28T05:24:37.555488","MEAN_MOTION":13.11420795,"ECCENTRICITY":0.00019841,"INCLINATION":87.885,"RA_OF_ASC_NODE":42.7182,"ARG_OF_PERICENTER":76.4901,"MEAN_ANOMALY":283.6448,"EPHEMERIS_TYPE":0,"CLASSIFICATION_TYPE":"U","NORAD_CAT_ID":50488,"ELEMENT_SET_NO":999,"REV_AT_EPOCH":20130,"BSTAR":-0.00024384135,"MEAN_MOTION_DOT":-7.4e-7,"MEAN_MOTION_DDOT":0},{"OBJECT_NAME":"ONEWEB-0412","OBJECT_ID":"2021-132W","EPOCH":"2026-02-28T05:19:12.421056","MEAN_MOTION":13.18685861,"ECCENTRICITY":0.00015252,"INCLINATION":87.9245,"RA_OF_ASC_NODE":357.0957,"ARG_OF_PERICENTER":80.6068,"MEAN_ANOMALY":279.5237,"EPHEMERIS_TYPE":0,"CLASSIFICATION_TYPE":"U","NORAD_CAT_ID":50489,"ELEMENT_SET_NO":999,"REV_AT_EPOCH":20729,"BSTAR":7.4273914e-5,"MEAN_MOTION_DOT":4.2e-7,"MEAN_MOTION_DDOT":0},{"OBJECT_NAME":"ONEWEB-0413","OBJECT_ID":"2021-132X","EPOCH":"2026-02-28T05:26:20.411232","MEAN_MOTION":13.1868645,"ECCENTRICITY":0.00015714,"INCLINATION":87.923,"RA_OF_ASC_NODE":357.1,"ARG_OF_PERICENTER":85.4657,"MEAN_ANOMALY":274.6654,"EPHEMERIS_TYPE":0,"CLASSIFICATION_TYPE":"U","NORAD_CAT_ID":50490,"ELEMENT_SET_NO":999,"REV_AT_EPOCH":20723,"BSTAR":8.3272622e-5,"MEAN_MOTION_DOT":4.6e-7,"MEAN_MOTION_DDOT":0},{"OBJECT_NAME":"ONEWEB-0414","OBJECT_ID":"2021-132Y","EPOCH":"2026-02-28T05:04:56.935776","MEAN_MOTION":13.18687974,"ECCENTRICITY":0.00016566,"INCLINATION":87.9244,"RA_OF_ASC_NODE":357.0737,"ARG_OF_PERICENTER":76.6757,"MEAN_ANOMALY":283.456,"EPHEMERIS_TYPE":0,"CLASSIFICATION_TYPE":"U","NORAD_CAT_ID":50491,"ELEMENT_SET_NO":999,"REV_AT_EPOCH":20726,"BSTAR":-3.0635082e-5,"MEAN_MOTION_DOT":1.0e-8,"MEAN_MOTION_DDOT":0},{"OBJECT_NAME":"ONEWEB-0417","OBJECT_ID":"2021-132Z","EPOCH":"2026-02-28T05:16:50.009664","MEAN_MOTION":13.18685731,"ECCENTRICITY":0.00019423,"INCLINATION":87.9236,"RA_OF_ASC_NODE":357.1008,"ARG_OF_PERICENTER":72.4546,"MEAN_ANOMALY":287.6798,"EPHEMERIS_TYPE":0,"CLASSIFICATION_TYPE":"U","NORAD_CAT_ID":50492,"ELEMENT_SET_NO":999,"REV_AT_EPOCH":20724,"BSTAR":0.00017583059,"MEAN_MOTION_DOT":8.2e-7,"MEAN_MOTION_DDOT":0},{"OBJECT_NAME":"ONEWEB-0418","OBJECT_ID":"2021-132AA","EPOCH":"2026-02-28T05:30:52.128000","MEAN_MOTION":13.18687029,"ECCENTRICITY":0.00019923,"INCLINATION":87.9247,"RA_OF_ASC_NODE":357.0881,"ARG_OF_PERICENTER":68.0082,"MEAN_ANOMALY":292.1262,"EPHEMERIS_TYPE":0,"CLASSIFICATION_TYPE":"U","NORAD_CAT_ID":50493,"ELEMENT_SET_NO":999,"REV_AT_EPOCH":20730,"BSTAR":-0.00039286442,"MEAN_MOTION_DOT":-1.42e-6,"MEAN_MOTION_DDOT":0},{"OBJECT_NAME":"ONEWEB-0419","OBJECT_ID":"2021-132AB","EPOCH":"2026-02-28T05:57:13.197888","MEAN_MOTION":13.18685688,"ECCENTRICITY":0.00021728,"INCLINATION":87.9251,"RA_OF_ASC_NODE":357.0838,"ARG_OF_PERICENTER":76.3787,"MEAN_ANOMALY":283.7587,"EPHEMERIS_TYPE":0,"CLASSIFICATION_TYPE":"U","NORAD_CAT_ID":50494,"ELEMENT_SET_NO":999,"REV_AT_EPOCH":20722,"BSTAR":0.00042452143,"MEAN_MOTION_DOT":1.8e-6,"MEAN_MOTION_DDOT":0},{"OBJECT_NAME":"ONEWEB-0420","OBJECT_ID":"2021-132AC","EPOCH":"2026-02-28T05:07:19.928640","MEAN_MOTION":13.18685728,"ECCENTRICITY":0.00018009,"INCLINATION":87.924,"RA_OF_ASC_NODE":357.1037,"ARG_OF_PERICENTER":84.0831,"MEAN_ANOMALY":276.0506,"EPHEMERIS_TYPE":0,"CLASSIFICATION_TYPE":"U","NORAD_CAT_ID":50495,"ELEMENT_SET_NO":999,"REV_AT_EPOCH":20721,"BSTAR":-5.109357e-6,"MEAN_MOTION_DOT":1.1e-7,"MEAN_MOTION_DDOT":0}]
